[{"OBJECT_NAME":"CSTP 1.2 (STC 1.2)","OBJECT_ID":"2023-091W","EPOCH":"2026-03-09T23:12:27.821952","MEAN_MOTION":15.2718076,"ECCENTRICITY":0.00204388,"INCLINATION":97.5258,"RA_OF_ASC_NODE":134.3262,"ARG_OF_PERICENTER":84.9592,"MEAN_ANOMALY":275.3979,"EPHEMERIS_TYPE":0,"CLASSIFICATION_TYPE":"U","NORAD_CAT_ID":57186,"ELEMENT_SET_NO":999,"REV_AT_EPOCH":14930,"BSTAR":0.00043035718,"MEAN_MOTION_DOT":0.00011466,"MEAN_MOTION_DDOT":0},{"OBJECT_NAME":"STARLINK-30514","OBJECT_ID":"2023-156A","EPOCH":"2026-03-09T11:01:45.234048","MEAN_MOTION":15.30179861,"ECCENTRICITY":0.00010563,"INCLINATION":53.1594,"RA_OF_ASC_NODE":79.2374,"ARG_OF_PERICENTER":100.7224,"MEAN_ANOMALY":259.3895,"EPHEMERIS_TYPE":0,"CLASSIFICATION_TYPE":"U","NORAD_CAT_ID":58028,"ELEMENT_SET_NO":999,"REV_AT_EPOCH":13628,"BSTAR":0.00020581517,"MEAN_MOTION_DOT":5.738e-5,"MEAN_MOTION_DDOT":0}]
